STARLINK-30223
1 57603U 23119B   26090.33922050  .00033577  00000+0  21716-2 0  9991
2 57603  43.0017 323.0253 0003239 256.9044 103.1439 15.07619281146342
